IRIDIUM 39 [-]          
1 25042U 97069D   24001.75064991  .00000738  00000+0  19469-3 0  9991
2 25042  86.3908  79.2052 0016255 284.2445  75.6953 14.47598734371897
IRIDIUM 38 [-]          
1 25043U 97069E   24001.74976330  .00000567  00000+0  18463-3 0  9993
2 25043  86.3960  97.0283 0003903  78.9387 281.2249 14.37036187369460
IRIDIUM 42 [-]          
1 25077U 97077A   24001.81382855  .00000514  00000+0  17241-3 0  9995
2 25077  86.3966 102.5235 0002639  85.9271 274.2227 14.35332681364804
IRIDIUM 44 [-]          
1 25078U 97077B   24002.14923476  .00000575  00000+0  17966-3 0  9994
2 25078  86.3950  85.7297 0002088  40.7425 319.3930 14.39144943367188
IRIDIUM 45 [-]          
1 25104U 97082A   24001.89711165  .00009086  00000+0  55856-3 0  9997
2 25104  86.3759 300.4690 0175985 125.0701 236.7179 14.97783185371778
IRIDIUM 24 [-]          
1 25105U 97082B   24001.88741793  .00000785  00000+0  23851-3 0  9994
2 25105  86.3916 305.7165 0013010  43.3263 316.8957 14.40911594366531
IRIDIUM 51 [-]          
1 25262U 98018A   24001.90354656  .00013188  00000+0  69092-3 0  9997
2 25262  86.3914 310.7783 0162649  77.5400 284.3979 15.04832155366203
